IRIDIUM 171             
1 43929U 19002H   25191.57466364  .00000002  00000+0 -62112-5 0  9997
2 43929  86.4008 136.6614 0001824  86.8255 273.3150 14.34217439339993
IRIDIUM 170             
1 43930U 19002J   25191.55947487  .00000495  00000+0  74681-4 0  9995
2 43930  86.6121 136.4173 0002437  78.7557 281.3934 14.72246812348995
IRIDIUM 167             
1 43931U 19002K   25191.56832040  .00000010  00000+0 -34681-5 0  9996
2 43931  86.3999 136.4151 0001761  77.6985 282.4408 14.34217552339999
IRIDIUM 181             
1 56726U 23068S   25191.52054397  .00000136  00000+0  34430-4 0  9995
2 56726  86.4519 199.4920 0001988 102.7265 257.4158 14.43310245113154
IRIDIUM 177             
1 56727U 23068T   25191.32604644  .00000890  00000+0  11370-3 0  9994
2 56727  86.1991 131.1501 0002249  86.9374 273.2104 14.80225991115792
IRIDIUM 174             
1 56728U 23068U   25191.27525893  .00000628  00000+0  95672-4 0  9994
2 56728  86.6130 136.6484 0003165  83.0124 277.1453 14.72253494115714
IRIDIUM 178             
1 56729U 23068V   25191.45035348  .00000812  00000+0  10342-3 0  9991
2 56729  86.6579 168.1274 0002737  86.9380 273.2155 14.80229463115814
IRIDIUM 179             
1 56730U 23068W   25191.44497704  .00000427  00000+0  52783-4 0  9998
2 56730  86.6817 176.0692 0002523  86.9567 273.1944 14.80231131115813
